{"fetched_at":"2026-07-20T18:29:09.814Z","source":"https://celestrak.org/NORAD/elements/gp.php?GROUP=stations&FORMAT=JSON","constellation":"tiangong","records":[{"OBJECT_NAME":"CSS (TIANHE)","OBJECT_ID":"2021-035A","EPOCH":"2026-07-20T03:36:22.101984","CLASSIFICATION_TYPE":"U","MEAN_MOTION":15.58213113,"ECCENTRICITY":0.00019156,"INCLINATION":41.4683,"RA_OF_ASC_NODE":121.7978,"ARG_OF_PERICENTER":306.7446,"MEAN_ANOMALY":53.3216,"EPHEMERIS_TYPE":0,"NORAD_CAT_ID":48274,"ELEMENT_SET_NO":999,"REV_AT_EPOCH":29831,"BSTAR":0.00015004409,"MEAN_MOTION_DOT":0.00011348,"MEAN_MOTION_DDOT":0}]}
